GLOBALSTAR M023         
1 25621U 99004A   25335.58606161 -.00000112  00000+0 -47579-4 0  9990
2 25621  52.0114 263.7047 0010205 133.4720  38.9671 12.62509645236878
GLOBALSTAR M040         
1 25622U 99004B   25335.22958865 -.00000075  00000+0  16307-3 0  9994
2 25622  51.9921 269.1909 0001535  44.6537 124.9263 12.62023930236348
GLOBALSTAR M036         
1 25623U 99004C   25335.82880095 -.00000049  00000+0  48825-3 0  9991
2 25623  51.9935 158.4468 0010895  17.2126 356.3186 11.86618042198883
GLOBALSTAR M038         
1 25624U 99004D   25335.66400757 -.00000074  00000+0  17758-3 0  9996
2 25624  51.9990 309.2537 0002206  42.2839 128.7427 12.32536655223029
GLOBALSTAR M022         
1 25649U 99012A   25335.55265015 -.00000071  00000+0  19002-3 0  9997
2 25649  52.0013 195.9238 0003287 124.5545 243.2980 12.02507389196519
GLOBALSTAR M041         
1 25650U 99012B   25335.60547469 -.00000099  00000+0 -18258-3 0  9994
2 25650  52.0023  82.3324 0000452 282.2154  77.8631 11.96681104198321
GLOBALSTAR M046         
1 25651U 99012C   25335.79748838  .00000005  00000+0  10360-2 0  9998
2 25651  52.0031 139.2723 0001526 192.8113 275.0398 12.09418300203948
GLOBALSTAR M037         
1 25652U 99012D   25335.56662829 -.00000078  00000+0  14150-3 0  9992
2 25652  52.0026  34.3193 0002197 186.0331 321.6305 12.62456995232412
